start=new Date('2021-12-08T00:00:00.000Z').valueOf();
sats=[{"LAUNCH_DATE":"2021-04-07","FILE":"3235143","TLE_LINE2":"2 48140  53.0562 302.3966 0001988  56.7781 303.3399 15.06401840 38379","APOAPSIS":"548.585","CENTER_NAME":"EARTH","MEAN_MOTION_DDOT":"0.0000000000000","EPHEMERIS_TYPE":"0","REV_AT_EPOCH":"3837","TIME_SYSTEM":"UTC","RA_OF_ASC_NODE":"302.3966","EPOCH":"2021-12-07T21:23:05.286624","OBJECT_NAME":"STARLINK-2483","MEAN_ANOMALY":"303.3399","OBJECT_ID":"2021-027BA","REF_FRAME":"TEME","MEAN_ELEMENT_THEORY":"SGP4","COUNTRY_CODE":"US","SITE":"AFETR","RCS_SIZE":"LARGE","DECAY_DATE":null,"BSTAR":"0.00013360000000","ARG_OF_PERICENTER":"56.7781","MEAN_MOTION":"15.06401840","INCLINATION":"53.0562","MEAN_MOTION_DOT":"0.00001709","CLASSIFICATION_TYPE":"U","PERIOD":"95.592","PERIAPSIS":"545.831","NORAD_CAT_ID":"48140","ECCENTRICITY":"0.00019880","TLE_LINE1":"1 48140U 21027BA  21341.89103341  .00001709  00000-0  13360-3 0  9992","SEMIMAJOR_AXIS":"6925.343","GP_ID":"191298856","ELEMENT_SET_NO":"999","OBJECT_TYPE":"PAYLOAD"},{"OBJECT_ID":"2021-027BB","MEAN_ANOMALY":"299.4531","OBJECT_NAME":"STARLINK-2484","EPOCH":"2021-12-07T07:36:27.194688","RA_OF_ASC_NODE":"304.9891","REV_AT_EPOCH":"3830","TIME_SYSTEM":"UTC","DECAY_DATE":null,"RCS_SIZE":"LARGE","SITE":"AFETR","COUNTRY_CODE":"US","MEAN_ELEMENT_THEORY":"SGP4","REF_FRAME":"TEME","CENTER_NAME":"EARTH","TLE_LINE2":"2 48141  53.0555 304.9891 0002042  60.6662 299.4531 15.06395024 38303","APOAPSIS":"548.643","FILE":"3234816","LAUNCH_DATE":"2021-04-07","EPHEMERIS_TYPE":"0","MEAN_MOTION_DDOT":"0.0000000000000","ELEMENT_SET_NO":"999","GP_ID":"191271893","SEMIMAJOR_AXIS":"6925.364","TLE_LINE1":"1 48141U 21027BB  21341.31698142  .00000251  00000-0  35788-4 0  9998","ECCENTRICITY":"0.00020420","NORAD_CAT_ID":"48141","OBJECT_TYPE":"PAYLOAD","INCLINATION":"53.0555","MEAN_MOTION":"15.06395024","ARG_OF_PERICENTER":"60.6662","BSTAR":"0.00003578800000","PERIAPSIS":"545.815","CLASSIFICATION_TYPE":"U","PERIOD":"95.592","MEAN_MOTION_DOT":"0.00000251"},{"INCLINATION":"53.0548","MEAN_MOTION":"15.06391316","ARG_OF_PERICENTER":"54.3338","BSTAR":"0.00000698740000","PERIAPSIS":"545.816","MEAN_MOTION_DOT":"-0.00000178","CLASSIFICATION_TYPE":"U","PERIOD":"95.593","GP_ID":"191275463","ELEMENT_SET_NO":"999","TLE_LINE1":"1 48142U 21027BC  21341.65424673 -.00000178  00000-0  69874-5 0  9995","ECCENTRICITY":"0.00020570","SEMIMAJOR_AXIS":"6925.375","NORAD_CAT_ID":"48142","OBJECT_TYPE":"PAYLOAD","TLE_LINE2":"2 48142  53.0548 283.4718 0002057  54.3338 305.7843 15.06391316 38229","APOAPSIS":"548.665","CENTER_NAME":"EARTH","FILE":"3234951","LAUNCH_DATE":"2021-04-07","EPHEMERIS_TYPE":"0","MEAN_MOTION_DDOT":"0.0000000000000","MEAN_ANOMALY":"305.7843","OBJECT_ID":"2021-027BC","OBJECT_NAME":"STARLINK-2485","EPOCH":"2021-12-07T15:42:06.917472","REV_AT_EPOCH":"3822","TIME_SYSTEM":"UTC","RA_OF_ASC_NODE":"283.4718","DECAY_DATE":null,"RCS_SIZE":"LARGE","SITE":"AFETR","COUNTRY_CODE":"US","REF_FRAME":"TEME","MEAN_ELEMENT_THEORY":"SGP4"},{"EPOCH":"2021-12-07T18:51:43.125120","RA_OF_ASC_NODE":"237.3382","TIME_SYSTEM":"UTC","REV_AT_EPOCH":"3927","OBJECT_ID":"2021-027BD","MEAN_ANOMALY":"287.4697","OBJECT_NAME":"STARLINK-2486","COUNTRY_CODE":"US","MEAN_ELEMENT_THEORY":"SGP4","REF_FRAME":"TEME","DECAY_DATE":null,"RCS_SIZE":"LARGE","SITE":"AFETR","LAUNCH_DATE":"2021-04-07","CENTER_NAME":"EARTH","APOAPSIS":"556.155","TLE_LINE2":"2 48143  53.0541 237.3382 0002094  72.6519 287.4697 15.03959678 39270","FILE":"3235143","EPHEMERIS_TYPE":"0","MEAN_MOTION_DDOT":"0.0000000000000","SEMIMAJOR_AXIS":"6932.838","ECCENTRICITY":"0.00020940","TLE_LINE1":"1 48143U 21027BD  21341.78591580  .00001201  00000-0  10582-3 0  9999","NORAD_CAT_ID":"48143","ELEMENT_SET_NO":"999","GP_ID":"191298606","OBJECT_TYPE":"PAYLOAD","ARG_OF_PERICENTER":"72.6519","BSTAR":"0.00010582000000","INCLINATION":"53.0541","MEAN_MOTION":"15.03959678","CLASSIFICATION_TYPE":"U","PERIOD":"95.747","MEAN_MOTION_DOT":"0.00001201","PERIAPSIS":"553.251"},{"OBJECT_ID":"2021-027BE","MEAN_ANOMALY":"302.2352","OBJECT_NAME":"STARLINK-2487","EPOCH":"2021-12-07T06:19:29.188128","RA_OF_ASC_NODE":"285.2247","REV_AT_EPOCH":"3855","TIME_SYSTEM":"UTC","RCS_SIZE":"LARGE","DECAY_DATE":null,"SITE":"AFETR","COUNTRY_CODE":"US","MEAN_ELEMENT_THEORY":"SGP4","REF_FRAME":"TEME","CENTER_NAME":"EARTH","TLE_LINE2":"2 48144  53.0548 285.2247 0001912  57.8822 302.2352 15.06394863 38556","APOAPSIS":"548.553","FILE":"3234816","LAUNCH_DATE":"2021-04-07","EPHEMERIS_TYPE":"0","MEAN_MOTION_DDOT":"0.0000000000000","ELEMENT_SET_NO":"999","GP_ID":"191271142","SEMIMAJOR_AXIS":"6925.364","ECCENTRICITY":"0.00019120","TLE_LINE1":"1 48144U 21027BE  21341.26353227 -.00000182  00000-0  66894-5 0  9994","NORAD_CAT_ID":"48144","OBJECT_TYPE":"PAYLOAD","INCLINATION":"53.0548","MEAN_MOTION":"15.06394863","ARG_OF_PERICENTER":"57.8822","BSTAR":"0.00000668940000","PERIAPSIS":"545.905","CLASSIFICATION_TYPE":"U","PERIOD":"95.592","MEAN_MOTION_DOT":"-0.00000182"},{"EPOCH":"2021-12-07T19:09:06.533856","RA_OF_ASC_NODE":"282.8120","TIME_SYSTEM":"UTC","REV_AT_EPOCH":"3864","OBJECT_ID":"2021-027BF","MEAN_ANOMALY":"302.5206","OBJECT_NAME":"STARLINK-2488","COUNTRY_CODE":"US","MEAN_ELEMENT_THEORY":"SGP4","REF_FRAME":"TEME","RCS_SIZE":"LARGE","DECAY_DATE":null,"SITE":"AFETR","LAUNCH_DATE":"2021-04-07","CENTER_NAME":"EARTH","APOAPSIS":"548.548","TLE_LINE2":"2 48145  53.0557 282.8120 0001914  57.5968 302.5206 15.06397180 38646","FILE":"3235143","EPHEMERIS_TYPE":"0","MEAN_MOTION_DDOT":"0.0000000000000","SEMIMAJOR_AXIS":"6925.357","ECCENTRICITY":"0.00019140","TLE_LINE1":"1 48145U 21027BF  21341.79799229 -.00000467  00000-0 -12423-4 0  9994","NORAD_CAT_ID":"48145","ELEMENT_SET_NO":"999","GP_ID":"191299605","OBJECT_TYPE":"PAYLOAD","ARG_OF_PERICENTER":"57.5968","BSTAR":"-0.00001242300000","INCLINATION":"53.0557","MEAN_MOTION":"15.06397180","PERIOD":"95.592","CLASSIFICATION_TYPE":"U","MEAN_MOTION_DOT":"-0.00000467","PERIAPSIS":"545.897"},{"FILE":"3235143","CENTER_NAME":"EARTH","TLE_LINE2":"2 48146  53.0564 303.7186 0002140  49.8732 310.2444 15.06391261 38335","APOAPSIS":"548.722","LAUNCH_DATE":"2021-04-07","MEAN_MOTION_DDOT":"0.0000000000000","EPHEMERIS_TYPE":"0","OBJECT_NAME":"STARLINK-2489","OBJECT_ID":"2021-027BG","MEAN_ANOMALY":"310.2444","RA_OF_ASC_NODE":"303.7186","TIME_SYSTEM":"UTC","REV_AT_EPOCH":"3833","EPOCH":"2021-12-07T14:19:50.706624","SITE":"AFETR","DECAY_DATE":null,"RCS_SIZE":"LARGE","MEAN_ELEMENT_THEORY":"SGP4","REF_FRAME":"TEME","COUNTRY_CODE":"US","MEAN_MOTION":"15.06391261","INCLINATION":"53.0564","BSTAR":"0.00000662840000","ARG_OF_PERICENTER":"49.8732","PERIAPSIS":"545.758","CLASSIFICATION_TYPE":"U","PERIOD":"95.593","MEAN_MOTION_DOT":"-0.00000183","ELEMENT_SET_NO":"999","GP_ID":"191300359","NORAD_CAT_ID":"48146","SEMIMAJOR_AXIS":"6925.375","ECCENTRICITY":"0.00021400","TLE_LINE1":"1 48146U 21027BG  21341.59711466 -.00000183  00000-0  66284-5 0  9999","OBJECT_TYPE":"PAYLOAD"},{"MEAN_ANOMALY":"300.3663","OBJECT_ID":"2021-027BH","OBJECT_NAME":"STARLINK-2490","EPOCH":"2021-12-07T09:29:54.033792","REV_AT_EPOCH":"3823","TIME_SYSTEM":"UTC","RA_OF_ASC_NODE":"309.5661","DECAY_DATE":null,"RCS_SIZE":"LARGE","SITE":"AFETR","COUNTRY_CODE":"US","REF_FRAME":"TEME","MEAN_ELEMENT_THEORY":"SGP4","APOAPSIS":"548.493","TLE_LINE2":"2 48147  53.0692 309.5661 0001851  59.7509 300.3663 15.06400945 38232","CENTER_NAME":"EARTH","FILE":"3234816","LAUNCH_DATE":"2021-04-07","EPHEMERIS_TYPE":"0","MEAN_MOTION_DDOT":"0.0000000000000","GP_ID":"191270392","ELEMENT_SET_NO":"999","ECCENTRICITY":"0.00018510","TLE_LINE1":"1 48147U 21027BH  21341.39576428  .00000240  00000-0  35019-4 0  9999","SEMIMAJOR_AXIS":"6925.346","NORAD_CAT_ID":"48147","OBJECT_TYPE":"PAYLOAD","INCLINATION":"53.0692","MEAN_MOTION":"15.06400945","ARG_OF_PERICENTER":"59.7509","BSTAR":"0.00003501900000","PERIAPSIS":"545.929","MEAN_MOTION_DOT":"0.00000240","CLASSIFICATION_TYPE":"U","PERIOD":"95.592"},{"MEAN_MOTION_DDOT":"0.0000000000000","EPHEMERIS_TYPE":"0","FILE":"3235143","CENTER_NAME":"EARTH","APOAPSIS":"548.461","TLE_LINE2":"2 48148  53.0555 303.5832 0001787  55.0477 305.0680 15.06396817 38329","LAUNCH_DATE":"2021-04-07","SITE":"AFETR","DECAY_DATE":null,"RCS_SIZE":"LARGE","MEAN_ELEMENT_THEORY":"SGP4","REF_FRAME":"TEME","COUNTRY_CODE":"US","OBJECT_NAME":"STARLINK-2491","OBJECT_ID":"2021-027BJ","MEAN_ANOMALY":"305.0680","RA_OF_ASC_NODE":"303.5832","REV_AT_EPOCH":"3832","TIME_SYSTEM":"UTC","EPOCH":"2021-12-07T15:07:36.519456","PERIAPSIS":"545.986","PERIOD":"95.592","CLASSIFICATION_TYPE":"U","MEAN_MOTION_DOT":"-0.00000288","MEAN_MOTION":"15.06396817","INCLINATION":"53.0555","BSTAR":"-0.00000045707000","ARG_OF_PERICENTER":"55.0477","OBJECT_TYPE":"PAYLOAD","ELEMENT_SET_NO":"999","GP_ID":"191298857","NORAD_CAT_ID":"48148","SEMIMAJOR_AXIS":"6925.358","TLE_LINE1":"1 48148U 21027BJ  21341.63028379 -.00000288  00000-0 -45707-6 0  9995","ECCENTRICITY":"0.00017870"},{"EPHEMERIS_TYPE":"0","MEAN_MOTION_DDOT":"0.0000000000000","CENTER_NAME":"EARTH","TLE_LINE2":"2 48149  53.0528 283.5108 0002071  59.4067 300.7126 15.06404006 38612","APOAPSIS":"548.636","FILE":"3235143","LAUNCH_DATE":"2021-04-07","RCS_SIZE":"LARGE","DECAY_DATE":null,"SITE":"AFETR","COUNTRY_CODE":"US","MEAN_ELEMENT_THEORY":"SGP4","REF_FRAME":"TEME","OBJECT_ID":"2021-027BK","MEAN_ANOMALY":"300.7126","OBJECT_NAME":"STARLINK-2492","EPOCH":"2021-12-07T15:26:10.228416","RA_OF_ASC_NODE":"283.5108","REV_AT_EPOCH":"3861","TIME_SYSTEM":"UTC","PERIAPSIS":"545.767","CLASSIFICATION_TYPE":"U","PERIOD":"95.592","MEAN_MOTION_DOT":"0.00000419","INCLINATION":"53.0528","MEAN_MOTION":"15.06404006","ARG_OF_PERICENTER":"59.4067","BSTAR":"0.00004705200000","OBJECT_TYPE":"PAYLOAD","ELEMENT_SET_NO":"999","GP_ID":"191300106","SEMIMAJOR_AXIS":"6925.336","TLE_LINE1":"1 48149U 21027BK  21341.64317394  .00000419  00000-0  47052-4 0  9992","ECCENTRICITY":"0.00020710","NORAD_CAT_ID":"48149"}];
